[{"OBJECT_NAME":"TECHNOSAT","OBJECT_ID":"2017-042E","EPOCH":"2026-03-09T21:27:07.546176","MEAN_MOTION":15.04288119,"ECCENTRICITY":0.00196291,"INCLINATION":97.4156,"RA_OF_ASC_NODE":230.4429,"ARG_OF_PERICENTER":75.0719,"MEAN_ANOMALY":285.2679,"EPHEMERIS_TYPE":0,"CLASSIFICATION_TYPE":"U","NORAD_CAT_ID":42829,"ELEMENT_SET_NO":999,"REV_AT_EPOCH":47177,"BSTAR":0.00032015047,"MEAN_MOTION_DOT":4.417e-5,"MEAN_MOTION_DDOT":0},{"OBJECT_NAME":"STARLINK-5943","OBJECT_ID":"2023-042AG","EPOCH":"2026-03-09T22:08:30.055776","MEAN_MOTION":15.03751698,"ECCENTRICITY":0.00027859,"INCLINATION":43.0084,"RA_OF_ASC_NODE":41.9837,"ARG_OF_PERICENTER":279.9866,"MEAN_ANOMALY":80.0663,"EPHEMERIS_TYPE":0,"CLASSIFICATION_TYPE":"U","NORAD_CAT_ID":56016,"ELEMENT_SET_NO":999,"REV_AT_EPOCH":16309,"BSTAR":0.0075988844,"MEAN_MOTION_DOT":0.00107456,"MEAN_MOTION_DDOT":0}]
